54679,ONEWEB-0685,2022,108.94,148.0,+,87.92,Active,1,LEO,USA,UK,Commercial,Communications,Falcon,1 54679U 22166AP  25159.45508180  .00000049  00000+0  86664-4 0  9997,2 54679  87.9250 318.5275 0001556  95.0098 265.1213 13.21825844122040,13.21825844,0.0001556,LEO
54680,ONEWEB-0712,2022,109.37,148.0,+,87.9,Active,1,LEO,USA,UK,Commercial,Communications,Falcon,1 54680U 22166AQ  25159.45894852  .00000110  00000+0  25287-3 0  9995,2 54680  87.9031 303.2530 0001513 116.3955 243.7331 13.16596586122883,13.16596586,0.0001513,LEO
54681,ONEWEB-0714,2022,108.94,148.0,+,87.93,Active,1,LEO,USA,UK,Commercial,Communications,Falcon,1 54681U 22166AR  25159.68846928  .00000162  00000+0  36122-3 0  9999,2 54681  87.9254 318.4729 0001609  94.3903 265.7415 13.21827410122193,13.2182741,0.0001609,LEO
55140,ONEWEB-0532,2023,109.29,148.0,+,87.91,Active,1,LEO,USA,UK,Commercial,Communications,Falcon,1 55140U 23004A   25159.73113952  .00000008  00000+0 -12275-4 0  9996,2 55140  87.9071  80.2125 0002198  67.5525 292.5840 13.17649277118408,13.17649277,0.0002198,LEO
55141,ONEWEB-0533,2023,109.72,148.0,+,87.89,Active,1,LEO,USA,UK,Commercial,Communications,Falcon,1 55141U 23004B   25160.42899293  .00000154  00000+0  39195-3 0  9994,2 55141  87.8896  64.8009 0001680  75.9091 284.2224 13.12442222119162,13.12442222,0.000168,LEO
55142,ONEWEB-0541,2023,109.8,148.0,+,87.88,Active,1,LEO,USA,UK,Commercial,Communications,Falcon,1 55142U 23004C   25159.55701987 -.00000097  00000+0 -30839-3 0  9993,2 55142  87.8843  95.5215 0002023  78.8619 281.2736 13.11420655116971,13.11420655,0.0002023,LEO
55143,ONEWEB-0543,2023,109.2,148.0,+,87.91,Active,1,LEO,USA,UK,Commercial,Communications,Falcon,1 55143U 23004D   25159.70011736 -.00000092  00000+0 -26663-3 0  9992,2 55143  87.9138  49.7477 0001644  86.7611 273.3709 13.18686098120473,13.18686098,0.0001644,LEO
55144,ONEWEB-0544,2023,109.2,148.0,+,87.91,Active,1,LEO,USA,UK,Commercial,Communications,Falcon,1 55144U 23004E   25159.69380047 -.00000005  00000+0 -46259-4 0  9993,2 55144  87.9142  49.7387 0001911  87.2554 272.8796 13.18685119120471,13.18685119,0.0001911,LEO
